STARLINK-32088          
1 59693U 24086M   25356.43033393  .00000928  00000+0  43246-4 0  9992
2 59693  43.0038 128.6654 0001388 261.5357  98.5338 15.27583520 92389
STARLINK-32107          
1 59694U 24086N   25357.28211766  .00001714  00000+0  71822-4 0  9994
2 59694  43.0009 131.6601 0000985 272.6604  87.4135 15.27562005 92426
STARLINK-32104          
1 59695U 24086P   25356.69283685 -.00002783  00000+0 -91643-4 0  9990
2 59695  43.0021 131.4418 0001344 275.7975  84.2723 15.27575304 92378
STARLINK-32094          
1 59696U 24086Q   25356.69749551 -.00000179  00000+0  30124-5 0  9994
2 59696  43.0015 135.0119 0000789 273.7902  86.2859 15.27573783 92337
STARLINK-32099          
1 59697U 24086R   25356.46148944  .00001300  00000+0  56751-4 0  9998
2 59697  43.0009 135.8192 0001369 251.4029 108.6674 15.27587287 92303
STARLINK-32096          
1 59698U 24086S   25356.41024097  .00000714  00000+0  35477-4 0  9996
2 59698  43.0017 136.2927 0001729 272.0739  87.9914 15.27581159 92297
STARLINK-32102          
1 59699U 24086T   25356.46791702  .00025052  00000+0  91605-3 0  9992
2 59699  43.0000 135.8668 0001789 266.5144  93.5504 15.27606202 92308
STARLINK-32092          
1 59700U 24086U   25356.74745338  .00000521  00000+0  28437-4 0  9998
2 59700  43.0013 134.5238 0001275 274.5324  85.5382 15.27581758 92340
STARLINK-32093          
1 59701U 24086V   25357.07180699 -.00005040  00000+0 -17360-3 0  9994
2 59701  43.0021 132.6594 0001455 275.5971  84.4715 15.27607484 92391
STARLINK-32087          
1 59702U 24086W   25356.47177580  .00001560  00000+0  66201-4 0  9993
2 59702  43.0023 135.8946 0001043 258.9983 101.0751 15.27584253 92306
STARLINK-32086          
1 59703U 24086X   25356.12684989  .00001958  00000+0  80655-4 0  9992
2 59703  43.0022 137.6102 0001509 264.2252  95.8428 15.27582080 92257
STARLINK-32098          
1 59704U 24086Y   25356.68976876  .00001326  00000+0  57701-4 0  9998
2 59704  43.0008 134.9523 0001287 269.4591  90.6114 15.27585387 92332
STARLINK-11107 [DTC]    
1 59708U 24088A   25357.20436397 -.00002028  00000+0 -11897-4 0  9990
2 59708  53.1586 343.0114 0000464  86.7813 273.3258 15.69699501 94242
STARLINK-11088 [DTC]    
1 59709U 24088B   25357.00364080 -.00024073  00000+0 -19478-3 0  9994
2 59709  53.1583 344.6161 0001455 104.0384 256.0795 15.69663524 94225
STARLINK-11092 [DTC]    
1 59710U 24088C   25357.18973734 -.00000006  00000+0  48062-5 0  9999
2 59710  53.1596 343.6414 0001063  96.1192 263.9947 15.69713593 94255
STARLINK-11082 [DTC]    
1 59711U 24088D   25357.18483950 -.00001456  00000+0 -71660-5 0  9997
2 59711  53.1591 343.6072 0001170  96.5852 263.5299 15.69704524 94257
