[{"OBJECT_NAME":"STARLINK-32088","OBJECT_ID":"2024-086M","EPOCH":"2025-12-22T10:19:40.851552","MEAN_MOTION":15.2758352,"ECCENTRICITY":0.00013886,"INCLINATION":43.0038,"RA_OF_ASC_NODE":128.6654,"ARG_OF_PERICENTER":261.5357,"MEAN_ANOMALY":98.5338,"EPHEMERIS_TYPE":0,"CLASSIFICATION_TYPE":"U","NORAD_CAT_ID":59693,"ELEMENT_SET_NO":999,"REV_AT_EPOCH":9238,"BSTAR":4.3245624e-5,"MEAN_MOTION_DOT":9.28e-6,"MEAN_MOTION_DDOT":0},{"OBJECT_NAME":"STARLINK-32107","OBJECT_ID":"2024-086N","EPOCH":"2025-12-23T06:46:14.965824","MEAN_MOTION":15.27562005,"ECCENTRICITY":9.853e-5,"INCLINATION":43.0009,"RA_OF_ASC_NODE":131.6601,"ARG_OF_PERICENTER":272.6604,"MEAN_ANOMALY":87.4135,"EPHEMERIS_TYPE":0,"CLASSIFICATION_TYPE":"U","NORAD_CAT_ID":59694,"ELEMENT_SET_NO":999,"REV_AT_EPOCH":9242,"BSTAR":7.1821554e-5,"MEAN_MOTION_DOT":1.714e-5,"MEAN_MOTION_DDOT":0},{"OBJECT_NAME":"STARLINK-32104","OBJECT_ID":"2024-086P","EPOCH":"2025-12-22T16:37:41.103840","MEAN_MOTION":15.27575304,"ECCENTRICITY":0.00013443,"INCLINATION":43.0021,"RA_OF_ASC_NODE":131.4418,"ARG_OF_PERICENTER":275.7975,"MEAN_ANOMALY":84.2723,"EPHEMERIS_TYPE":0,"CLASSIFICATION_TYPE":"U","NORAD_CAT_ID":59695,"ELEMENT_SET_NO":999,"REV_AT_EPOCH":9237,"BSTAR":-9.1643059e-5,"MEAN_MOTION_DOT":-2.783e-5,"MEAN_MOTION_DDOT":0},{"OBJECT_NAME":"STARLINK-32094","OBJECT_ID":"2024-086Q","EPOCH":"2025-12-22T16:44:23.612064","MEAN_MOTION":15.27573783,"ECCENTRICITY":7.89e-5,"INCLINATION":43.0015,"RA_OF_ASC_NODE":135.0119,"ARG_OF_PERICENTER":273.7902,"MEAN_ANOMALY":86.2859,"EPHEMERIS_TYPE":0,"CLASSIFICATION_TYPE":"U","NORAD_CAT_ID":59696,"ELEMENT_SET_NO":999,"REV_AT_EPOCH":9233,"BSTAR":3.012407e-6,"MEAN_MOTION_DOT":-1.79e-6,"MEAN_MOTION_DDOT":0},{"OBJECT_NAME":"STARLINK-32099","OBJECT_ID":"2024-086R","EPOCH":"2025-12-22T11:04:32.687616","MEAN_MOTION":15.27587287,"ECCENTRICITY":0.00013695,"INCLINATION":43.0009,"RA_OF_ASC_NODE":135.8192,"ARG_OF_PERICENTER":251.4029,"MEAN_ANOMALY":108.6674,"EPHEMERIS_TYPE":0,"CLASSIFICATION_TYPE":"U","NORAD_CAT_ID":59697,"ELEMENT_SET_NO":999,"REV_AT_EPOCH":9230,"BSTAR":5.6751156e-5,"MEAN_MOTION_DOT":1.3e-5,"MEAN_MOTION_DDOT":0},{"OBJECT_NAME":"STARLINK-32096","OBJECT_ID":"2024-086S","EPOCH":"2025-12-22T09:50:44.819808","MEAN_MOTION":15.27581159,"ECCENTRICITY":0.00017291,"INCLINATION":43.0017,"RA_OF_ASC_NODE":136.2927,"ARG_OF_PERICENTER":272.0739,"MEAN_ANOMALY":87.9914,"EPHEMERIS_TYPE":0,"CLASSIFICATION_TYPE":"U","NORAD_CAT_ID":59698,"ELEMENT_SET_NO":999,"REV_AT_EPOCH":9229,"BSTAR":3.54768e-5,"MEAN_MOTION_DOT":7.14e-6,"MEAN_MOTION_DDOT":0},{"OBJECT_NAME":"STARLINK-32102","OBJECT_ID":"2024-086T","EPOCH":"2025-12-22T11:13:48.030528","MEAN_MOTION":15.27606202,"ECCENTRICITY":0.00017892,"INCLINATION":43,"RA_OF_ASC_NODE":135.8668,"ARG_OF_PERICENTER":266.5144,"MEAN_ANOMALY":93.5504,"EPHEMERIS_TYPE":0,"CLASSIFICATION_TYPE":"U","NORAD_CAT_ID":59699,"ELEMENT_SET_NO":999,"REV_AT_EPOCH":9230,"BSTAR":0.00091604762,"MEAN_MOTION_DOT":0.00025052,"MEAN_MOTION_DDOT":0},{"OBJECT_NAME":"STARLINK-32092","OBJECT_ID":"2024-086U","EPOCH":"2025-12-22T17:56:19.972032","MEAN_MOTION":15.27581758,"ECCENTRICITY":0.00012752,"INCLINATION":43.0013,"RA_OF_ASC_NODE":134.5238,"ARG_OF_PERICENTER":274.5324,"MEAN_ANOMALY":85.5382,"EPHEMERIS_TYPE":0,"CLASSIFICATION_TYPE":"U","NORAD_CAT_ID":59700,"ELEMENT_SET_NO":999,"REV_AT_EPOCH":9234,"BSTAR":2.8436608e-5,"MEAN_MOTION_DOT":5.21e-6,"MEAN_MOTION_DDOT":0},{"OBJECT_NAME":"STARLINK-32093","OBJECT_ID":"2024-086V","EPOCH":"2025-12-23T01:43:24.123936","MEAN_MOTION":15.27607484,"ECCENTRICITY":0.0001455,"INCLINATION":43.0021,"RA_OF_ASC_NODE":132.6594,"ARG_OF_PERICENTER":275.5971,"MEAN_ANOMALY":84.4715,"EPHEMERIS_TYPE":0,"CLASSIFICATION_TYPE":"U","NORAD_CAT_ID":59701,"ELEMENT_SET_NO":999,"REV_AT_EPOCH":9239,"BSTAR":-0.00017360398,"MEAN_MOTION_DOT":-5.04e-5,"MEAN_MOTION_DDOT":0},{"OBJECT_NAME":"STARLINK-32087","OBJECT_ID":"2024-086W","EPOCH":"2025-12-22T11:19:21.429120","MEAN_MOTION":15.27584253,"ECCENTRICITY":0.00010436,"INCLINATION":43.0023,"RA_OF_ASC_NODE":135.8946,"ARG_OF_PERICENTER":258.9983,"MEAN_ANOMALY":101.0751,"EPHEMERIS_TYPE":0,"CLASSIFICATION_TYPE":"U","NORAD_CAT_ID":59702,"ELEMENT_SET_NO":999,"REV_AT_EPOCH":9230,"BSTAR":6.620071e-5,"MEAN_MOTION_DOT":1.56e-5,"MEAN_MOTION_DDOT":0},{"OBJECT_NAME":"STARLINK-32086","OBJECT_ID":"2024-086X","EPOCH":"2025-12-22T03:02:39.830496","MEAN_MOTION":15.2758208,"ECCENTRICITY":0.00015093,"INCLINATION":43.0022,"RA_OF_ASC_NODE":137.6102,"ARG_OF_PERICENTER":264.2252,"MEAN_ANOMALY":95.8428,"EPHEMERIS_TYPE":0,"CLASSIFICATION_TYPE":"U","NORAD_CAT_ID":59703,"ELEMENT_SET_NO":999,"REV_AT_EPOCH":9225,"BSTAR":8.0654977e-5,"MEAN_MOTION_DOT":1.958e-5,"MEAN_MOTION_DDOT":0},{"OBJECT_NAME":"STARLINK-32098","OBJECT_ID":"2024-086Y","EPOCH":"2025-12-22T16:33:16.020864","MEAN_MOTION":15.27585387,"ECCENTRICITY":0.0001287,"INCLINATION":43.0008,"RA_OF_ASC_NODE":134.9523,"ARG_OF_PERICENTER":269.4591,"MEAN_ANOMALY":90.6114,"EPHEMERIS_TYPE":0,"CLASSIFICATION_TYPE":"U","NORAD_CAT_ID":59704,"ELEMENT_SET_NO":999,"REV_AT_EPOCH":9233,"BSTAR":5.770093e-5,"MEAN_MOTION_DOT":1.326e-5,"MEAN_MOTION_DDOT":0},{"OBJECT_NAME":"STARLINK-11107 [DTC]","OBJECT_ID":"2024-088A","EPOCH":"2025-12-23T04:54:17.047008","MEAN_MOTION":15.69699501,"ECCENTRICITY":4.64e-5,"INCLINATION":53.1586,"RA_OF_ASC_NODE":343.0114,"ARG_OF_PERICENTER":86.7813,"MEAN_ANOMALY":273.3258,"EPHEMERIS_TYPE":0,"CLASSIFICATION_TYPE":"U","NORAD_CAT_ID":59708,"ELEMENT_SET_NO":999,"REV_AT_EPOCH":9424,"BSTAR":-1.1896935e-5,"MEAN_MOTION_DOT":-2.028e-5,"MEAN_MOTION_DDOT":0},{"OBJECT_NAME":"STARLINK-11088 [DTC]","OBJECT_ID":"2024-088B","EPOCH":"2025-12-23T00:05:14.565120","MEAN_MOTION":15.69663524,"ECCENTRICITY":0.00014551,"INCLINATION":53.1583,"RA_OF_ASC_NODE":344.6161,"ARG_OF_PERICENTER":104.0384,"MEAN_ANOMALY":256.0795,"EPHEMERIS_TYPE":0,"CLASSIFICATION_TYPE":"U","NORAD_CAT_ID":59709,"ELEMENT_SET_NO":999,"REV_AT_EPOCH":9422,"BSTAR":-0.00019477782,"MEAN_MOTION_DOT":-0.00024073,"MEAN_MOTION_DDOT":0},{"OBJECT_NAME":"STARLINK-11092 [DTC]","OBJECT_ID":"2024-088C","EPOCH":"2025-12-23T04:33:13.306176","MEAN_MOTION":15.69713593,"ECCENTRICITY":0.00010636,"INCLINATION":53.1596,"RA_OF_ASC_NODE":343.6414,"ARG_OF_PERICENTER":96.1192,"MEAN_ANOMALY":263.9947,"EPHEMERIS_TYPE":0,"CLASSIFICATION_TYPE":"U","NORAD_CAT_ID":59710,"ELEMENT_SET_NO":999,"REV_AT_EPOCH":9425,"BSTAR":4.806167e-6,"MEAN_MOTION_DOT":-6.0e-8,"MEAN_MOTION_DDOT":0},{"OBJECT_NAME":"STARLINK-11082 [DTC]","OBJECT_ID":"2024-088D","EPOCH":"2025-12-23T04:26:10.132800","MEAN_MOTION":15.69704524,"ECCENTRICITY":0.00011701,"INCLINATION":53.1591,"RA_OF_ASC_NODE":343.6072,"ARG_OF_PERICENTER":96.5852,"MEAN_ANOMALY":263.5299,"EPHEMERIS_TYPE":0,"CLASSIFICATION_TYPE":"U","NORAD_CAT_ID":59711,"ELEMENT_SET_NO":999,"REV_AT_EPOCH":9425,"BSTAR":-7.165979e-6,"MEAN_MOTION_DOT":-1.456e-5,"MEAN_MOTION_DDOT":0}]
